GLOBALSTAR M024 [-]     
1 25883U 99043A   23318.55487311 -.00000017  00000+0  16815-2 0  9993
2 25883  52.0023 250.7132 0000609 216.2429 314.5766 11.10158384 50370
GLOBALSTAR M027 [-]     
1 25884U 99043B   23318.94800413 -.00000082  00000+0 -69217-3 0  9997
2 25884  52.0225 311.3756 0021226 133.5955 226.6603 11.04365377 77135
GLOBALSTAR M054 [-]     
1 25885U 99043C   23318.86985045 -.00000088  00000+0 -43921-3 0  9994
2 25885  52.0116 176.2302 0003513 248.7409 124.1496 11.39202026 52912
GLOBALSTAR M053 [-]     
1 25886U 99043D   23318.55975337 -.00000086  00000+0 -51444-3 0  9991
2 25886  51.9968  91.8545 0003931 163.5747 278.2618 11.27652300 53942
GLOBALSTAR M058 [-]     
1 25907U 99049A   23318.43745201 -.00000031  00000+0  71347-3 0  9996
2 25907  51.9934 219.8878 0001609 222.1973 137.8738 11.93169289472213
GLOBALSTAR M050 [-]     
1 25908U 99049B   23318.92210672 -.00000094  00000+0 -66634-4 0  9994
2 25908  51.9994 269.6191 0009024 319.7520 140.7527 12.07423400 78092
GLOBALSTAR M033 [-]     
1 25909U 99049C   23318.93330625 -.00000107  00000+0 -14805-3 0  9994
2 25909  51.9898 181.4999 0011797 155.6863 204.4543 12.20259115464900
GLOBALSTAR M055 [-]     
1 25910U 99049D   23318.43727159 -.00000034  00000+0  51946-3 0  9998
2 25910  52.0013 221.9036 0007544  12.0125 348.0905 12.29390583 96853
